[Satellite]
VERSION=1.1
NAME=COSMOS 1536
NICKNAME=COSMOS 1536
TLE1=1 14699U 84013A   18020.84757542 -.00000124  00000-0 -10766-4 0  9991
TLE2=2 14699  82.5266 118.7893 0013596  40.2368 319.9862 15.05224282824670
